[{"OBJECT_NAME":"ONEWEB-0288","OBJECT_ID":"2021-075D","EPOCH":"2025-08-27T04:47:56.221728","MEAN_MOTION":13.12442373,"ECCENTRICITY":0.00016959,"INCLINATION":87.8874,"RA_OF_ASC_NODE":49.075,"ARG_OF_PERICENTER":96.7284,"MEAN_ANOMALY":263.4038,"EPHEMERIS_TYPE":0,"CLASSIFICATION_TYPE":"U","NORAD_CAT_ID":49078,"ELEMENT_SET_NO":999,"REV_AT_EPOCH":19662,"BSTAR":-0.0011398001,"MEAN_MOTION_DOT":-3.97e-6,"MEAN_MOTION_DDOT":0},{"OBJECT_NAME":"ONEWEB-0289","OBJECT_ID":"2021-075E","EPOCH":"2025-08-26T22:51:49.728096","MEAN_MOTION":13.17651571,"ECCENTRICITY":0.0001325,"INCLINATION":87.9017,"RA_OF_ASC_NODE":64.4321,"ARG_OF_PERICENTER":94.7091,"MEAN_ANOMALY":265.4192,"EPHEMERIS_TYPE":0,"CLASSIFICATION_TYPE":"U","NORAD_CAT_ID":49079,"ELEMENT_SET_NO":999,"REV_AT_EPOCH":19545,"BSTAR":0.0001216341,"MEAN_MOTION_DOT":6.0e-7,"MEAN_MOTION_DDOT":0},{"OBJECT_NAME":"ONEWEB-0290","OBJECT_ID":"2021-075F","EPOCH":"2025-08-26T22:13:08.595552","MEAN_MOTION":13.17648164,"ECCENTRICITY":0.000114,"INCLINATION":87.9028,"RA_OF_ASC_NODE":64.3901,"ARG_OF_PERICENTER":84.3139,"MEAN_ANOMALY":275.8122,"EPHEMERIS_TYPE":0,"CLASSIFICATION_TYPE":"U","NORAD_CAT_ID":49080,"ELEMENT_SET_NO":999,"REV_AT_EPOCH":19486,"BSTAR":-0.00062741232,"MEAN_MOTION_DOT":-2.31e-6,"MEAN_MOTION_DDOT":0},{"OBJECT_NAME":"ONEWEB-0291","OBJECT_ID":"2021-075G","EPOCH":"2025-08-26T21:51:18.384480","MEAN_MOTION":13.17646577,"ECCENTRICITY":0.00016844,"INCLINATION":87.9035,"RA_OF_ASC_NODE":64.397,"ARG_OF_PERICENTER":102.7898,"MEAN_ANOMALY":257.3422,"EPHEMERIS_TYPE":0,"CLASSIFICATION_TYPE":"U","NORAD_CAT_ID":49081,"ELEMENT_SET_NO":999,"REV_AT_EPOCH":19485,"BSTAR":-4.6670828e-5,"MEAN_MOTION_DOT":-5.0e-8,"MEAN_MOTION_DDOT":0},{"OBJECT_NAME":"ONEWEB-0293","OBJECT_ID":"2021-075H","EPOCH":"2025-08-26T22:27:45.520128","MEAN_MOTION":13.17649501,"ECCENTRICITY":0.00016219,"INCLINATION":87.9024,"RA_OF_ASC_NODE":64.4231,"ARG_OF_PERICENTER":91.0427,"MEAN_ANOMALY":269.089,"EPHEMERIS_TYPE":0,"CLASSIFICATION_TYPE":"U","NORAD_CAT_ID":49082,"ELEMENT_SET_NO":999,"REV_AT_EPOCH":19488,"BSTAR":-2.5061935e-5,"MEAN_MOTION_DOT":3.0e-8,"MEAN_MOTION_DDOT":0},{"OBJECT_NAME":"ONEWEB-0294","OBJECT_ID":"2021-075J","EPOCH":"2025-08-27T04:57:17.017344","MEAN_MOTION":13.12442624,"ECCENTRICITY":0.00012987,"INCLINATION":87.8874,"RA_OF_ASC_NODE":49.0738,"ARG_OF_PERICENTER":101.6201,"MEAN_ANOMALY":258.5073,"EPHEMERIS_TYPE":0,"CLASSIFICATION_TYPE":"U","NORAD_CAT_ID":49083,"ELEMENT_SET_NO":999,"REV_AT_EPOCH":19601,"BSTAR":-0.00062066989,"MEAN_MOTION_DOT":-2.11e-6,"MEAN_MOTION_DDOT":0},{"OBJECT_NAME":"ONEWEB-0295","OBJECT_ID":"2021-075K","EPOCH":"2025-08-26T22:26:30.789312","MEAN_MOTION":13.17650514,"ECCENTRICITY":0.00017887,"INCLINATION":87.9032,"RA_OF_ASC_NODE":64.4252,"ARG_OF_PERICENTER":101.3445,"MEAN_ANOMALY":258.7888,"EPHEMERIS_TYPE":0,"CLASSIFICATION_TYPE":"U","NORAD_CAT_ID":49084,"ELEMENT_SET_NO":999,"REV_AT_EPOCH":19484,"BSTAR":5.0933535e-5,"MEAN_MOTION_DOT":3.3e-7,"MEAN_MOTION_DDOT":0},{"OBJECT_NAME":"ONEWEB-0296","OBJECT_ID":"2021-075L","EPOCH":"2025-08-27T04:29:14.846496","MEAN_MOTION":13.12441961,"ECCENTRICITY":0.0001648,"INCLINATION":87.8868,"RA_OF_ASC_NODE":49.0836,"ARG_OF_PERICENTER":111.0497,"MEAN_ANOMALY":249.0808,"EPHEMERIS_TYPE":0,"CLASSIFICATION_TYPE":"U","NORAD_CAT_ID":49085,"ELEMENT_SET_NO":999,"REV_AT_EPOCH":19601,"BSTAR":-0.0010335806,"MEAN_MOTION_DOT":-3.59e-6,"MEAN_MOTION_DDOT":0},{"OBJECT_NAME":"ONEWEB-0297","OBJECT_ID":"2021-075M","EPOCH":"2025-08-26T21:54:31.036608","MEAN_MOTION":13.12443611,"ECCENTRICITY":0.0001799,"INCLINATION":87.8866,"RA_OF_ASC_NODE":49.1769,"ARG_OF_PERICENTER":93.5665,"MEAN_ANOMALY":266.567,"EPHEMERIS_TYPE":0,"CLASSIFICATION_TYPE":"U","NORAD_CAT_ID":49086,"ELEMENT_SET_NO":999,"REV_AT_EPOCH":19658,"BSTAR":0.00056737448,"MEAN_MOTION_DOT":2.17e-6,"MEAN_MOTION_DDOT":0},{"OBJECT_NAME":"ONEWEB-0298","OBJECT_ID":"2021-075N","EPOCH":"2025-08-26T22:32:46.361472","MEAN_MOTION":13.17650283,"ECCENTRICITY":0.00019234,"INCLINATION":87.9022,"RA_OF_ASC_NODE":64.4204,"ARG_OF_PERICENTER":90.7006,"MEAN_ANOMALY":269.4346,"EPHEMERIS_TYPE":0,"CLASSIFICATION_TYPE":"U","NORAD_CAT_ID":49087,"ELEMENT_SET_NO":999,"REV_AT_EPOCH":19487,"BSTAR":-0.00011337206,"MEAN_MOTION_DOT":-3.1e-7,"MEAN_MOTION_DDOT":0},{"OBJECT_NAME":"ONEWEB-0299","OBJECT_ID":"2021-075P","EPOCH":"2025-08-26T22:35:01.833216","MEAN_MOTION":13.17648635,"ECCENTRICITY":0.00019294,"INCLINATION":87.9033,"RA_OF_ASC_NODE":64.3748,"ARG_OF_PERICENTER":93.4153,"MEAN_ANOMALY":266.7199,"EPHEMERIS_TYPE":0,"CLASSIFICATION_TYPE":"U","NORAD_CAT_ID":49088,"ELEMENT_SET_NO":999,"REV_AT_EPOCH":19485,"BSTAR":-4.762649e-5,"MEAN_MOTION_DOT":-6.0e-8,"MEAN_MOTION_DDOT":0},{"OBJECT_NAME":"ONEWEB-0300","OBJECT_ID":"2021-075Q","EPOCH":"2025-08-27T05:01:57.310176","MEAN_MOTION":13.12442602,"ECCENTRICITY":0.00019956,"INCLINATION":87.887,"RA_OF_ASC_NODE":49.0701,"ARG_OF_PERICENTER":84.4978,"MEAN_ANOMALY":275.6378,"EPHEMERIS_TYPE":0,"CLASSIFICATION_TYPE":"U","NORAD_CAT_ID":49089,"ELEMENT_SET_NO":999,"REV_AT_EPOCH":19664,"BSTAR":-0.00021123761,"MEAN_MOTION_DOT":-6.3e-7,"MEAN_MOTION_DDOT":0},{"OBJECT_NAME":"ONEWEB-0301","OBJECT_ID":"2021-075R","EPOCH":"2025-08-27T04:38:35.689632","MEAN_MOTION":13.12442264,"ECCENTRICITY":0.00020635,"INCLINATION":87.8866,"RA_OF_ASC_NODE":49.078,"ARG_OF_PERICENTER":82.3008,"MEAN_ANOMALY":277.8354,"EPHEMERIS_TYPE":0,"CLASSIFICATION_TYPE":"U","NORAD_CAT_ID":49090,"ELEMENT_SET_NO":999,"REV_AT_EPOCH":19600,"BSTAR":-0.0011508197,"MEAN_MOTION_DOT":-4.01e-6,"MEAN_MOTION_DDOT":0},{"OBJECT_NAME":"ONEWEB-0302","OBJECT_ID":"2021-075S","EPOCH":"2025-08-27T04:19:55.034112","MEAN_MOTION":13.12442177,"ECCENTRICITY":0.00014656,"INCLINATION":87.8874,"RA_OF_ASC_NODE":49.0857,"ARG_OF_PERICENTER":101.613,"MEAN_ANOMALY":258.5163,"EPHEMERIS_TYPE":0,"CLASSIFICATION_TYPE":"U","NORAD_CAT_ID":49091,"ELEMENT_SET_NO":999,"REV_AT_EPOCH":19598,"BSTAR":-0.00047081752,"MEAN_MOTION_DOT":-1.57e-6,"MEAN_MOTION_DDOT":0},{"OBJECT_NAME":"ONEWEB-0304","OBJECT_ID":"2021-075T","EPOCH":"2025-08-26T23:47:55.348512","MEAN_MOTION":13.17648279,"ECCENTRICITY":0.00017809,"INCLINATION":87.9029,"RA_OF_ASC_NODE":64.3959,"ARG_OF_PERICENTER":93.3719,"MEAN_ANOMALY":266.7616,"EPHEMERIS_TYPE":0,"CLASSIFICATION_TYPE":"U","NORAD_CAT_ID":49092,"ELEMENT_SET_NO":999,"REV_AT_EPOCH":19483,"BSTAR":0.00020107047,"MEAN_MOTION_DOT":9.1e-7,"MEAN_MOTION_DDOT":0},{"OBJECT_NAME":"ONEWEB-0305","OBJECT_ID":"2021-075U","EPOCH":"2025-08-27T05:06:15.705792","MEAN_MOTION":13.17650955,"ECCENTRICITY":0.00019862,"INCLINATION":87.9035,"RA_OF_ASC_NODE":64.3279,"ARG_OF_PERICENTER":101.3823,"MEAN_ANOMALY":258.7532,"EPHEMERIS_TYPE":0,"CLASSIFICATION_TYPE":"U","NORAD_CAT_ID":49093,"ELEMENT_SET_NO":999,"REV_AT_EPOCH":19489,"BSTAR":2.5623639e-5,"MEAN_MOTION_DOT":2.3e-7,"MEAN_MOTION_DDOT":0},{"OBJECT_NAME":"ONEWEB-0308","OBJECT_ID":"2021-075V","EPOCH":"2025-08-27T04:10:34.421664","MEAN_MOTION":13.12441123,"ECCENTRICITY":0.00017382,"INCLINATION":87.8871,"RA_OF_ASC_NODE":49.0788,"ARG_OF_PERICENTER":90.9821,"MEAN_ANOMALY":269.1507,"EPHEMERIS_TYPE":0,"CLASSIFICATION_TYPE":"U","NORAD_CAT_ID":49094,"ELEMENT_SET_NO":999,"REV_AT_EPOCH":19599,"BSTAR":8.853289e-5,"MEAN_MOTION_DOT":4.5e-7,"MEAN_MOTION_DDOT":0},{"OBJECT_NAME":"ONEWEB-0309","OBJECT_ID":"2021-075W","EPOCH":"2025-08-26T23:43:03.270720","MEAN_MOTION":13.17650482,"ECCENTRICITY":0.00013533,"INCLINATION":87.9031,"RA_OF_ASC_NODE":64.3904,"ARG_OF_PERICENTER":97.1145,"MEAN_ANOMALY":263.014,"EPHEMERIS_TYPE":0,"CLASSIFICATION_TYPE":"U","NORAD_CAT_ID":49095,"ELEMENT_SET_NO":999,"REV_AT_EPOCH":19483,"BSTAR":8.0017787e-5,"MEAN_MOTION_DOT":4.4e-7,"MEAN_MOTION_DDOT":0},{"OBJECT_NAME":"ONEWEB-0310","OBJECT_ID":"2021-075X","EPOCH":"2025-08-27T04:31:35.063328","MEAN_MOTION":13.12441717,"ECCENTRICITY":0.00016284,"INCLINATION":87.8868,"RA_OF_ASC_NODE":49.1218,"ARG_OF_PERICENTER":93.5777,"MEAN_ANOMALY":266.5538,"EPHEMERIS_TYPE":0,"CLASSIFICATION_TYPE":"U","NORAD_CAT_ID":49096,"ELEMENT_SET_NO":999,"REV_AT_EPOCH":19662,"BSTAR":-0.0011829771,"MEAN_MOTION_DOT":-4.13e-6,"MEAN_MOTION_DDOT":0},{"OBJECT_NAME":"ONEWEB-0311","OBJECT_ID":"2021-075Y","EPOCH":"2025-08-26T23:52:46.551072","MEAN_MOTION":13.17649693,"ECCENTRICITY":0.00020298,"INCLINATION":87.9024,"RA_OF_ASC_NODE":64.3878,"ARG_OF_PERICENTER":98.0353,"MEAN_ANOMALY":262.1009,"EPHEMERIS_TYPE":0,"CLASSIFICATION_TYPE":"U","NORAD_CAT_ID":49097,"ELEMENT_SET_NO":999,"REV_AT_EPOCH":19488,"BSTAR":-0.0003030795,"MEAN_MOTION_DOT":-1.05e-6,"MEAN_MOTION_DDOT":0},{"OBJECT_NAME":"ONEWEB-0312","OBJECT_ID":"2021-075Z","EPOCH":"2025-08-26T22:25:17.672448","MEAN_MOTION":13.17648505,"ECCENTRICITY":0.00017189,"INCLINATION":87.9022,"RA_OF_ASC_NODE":64.4317,"ARG_OF_PERICENTER":101.2378,"MEAN_ANOMALY":258.8947,"EPHEMERIS_TYPE":0,"CLASSIFICATION_TYPE":"U","NORAD_CAT_ID":49098,"ELEMENT_SET_NO":999,"REV_AT_EPOCH":19485,"BSTAR":-0.00062126608,"MEAN_MOTION_DOT":-2.28e-6,"MEAN_MOTION_DDOT":0},{"OBJECT_NAME":"ONEWEB-0313","OBJECT_ID":"2021-075AA","EPOCH":"2025-08-26T22:32:24.649152","MEAN_MOTION":13.17648645,"ECCENTRICITY":0.0001791,"INCLINATION":87.9017,"RA_OF_ASC_NODE":64.4438,"ARG_OF_PERICENTER":92.4479,"MEAN_ANOMALY":267.6858,"EPHEMERIS_TYPE":0,"CLASSIFICATION_TYPE":"U","NORAD_CAT_ID":49099,"ELEMENT_SET_NO":999,"REV_AT_EPOCH":19484,"BSTAR":-2.2262334e-5,"MEAN_MOTION_DOT":4.0e-8,"MEAN_MOTION_DDOT":0},{"OBJECT_NAME":"ONEWEB-0314","OBJECT_ID":"2021-075AB","EPOCH":"2025-08-26T23:33:20.230560","MEAN_MOTION":13.17649114,"ECCENTRICITY":0.00017787,"INCLINATION":87.903,"RA_OF_ASC_NODE":64.3711,"ARG_OF_PERICENTER":101.7742,"MEAN_ANOMALY":258.3589,"EPHEMERIS_TYPE":0,"CLASSIFICATION_TYPE":"U","NORAD_CAT_ID":49100,"ELEMENT_SET_NO":999,"REV_AT_EPOCH":19482,"BSTAR":-0.00061266772,"MEAN_MOTION_DOT":-2.25e-6,"MEAN_MOTION_DDOT":0}]
